IRIDIUM 159             
1 43578U 18061K   24231.80058178  .00000343  00000+0  11542-3 0  9997
2 43578  86.4016 335.6181 0002285  94.8607 265.2850 14.34212617317721
IRIDIUM 180             
1 43922U 19002A   24232.35823493  .00000741  00000+0  25755-3 0  9990
2 43922  86.3925 272.2478 0002388  95.7099 264.4370 14.34212770293457
IRIDIUM 176             
1 43923U 19002B   24232.19179798  .00002719  00000+0  42674-3 0  9991
2 43923  86.6053 272.3346 0002433 100.8300 259.3191 14.72293804301118
IRIDIUM 168             
1 43924U 19002C   24232.35189039  .00000675  00000+0  23396-3 0  9998
2 43924  86.3928 272.3091 0002266  95.0769 265.0685 14.34214921293395
IRIDIUM 173             
1 43925U 19002D   24232.19967094  .00000724  00000+0  25146-3 0  9996
2 43925  86.3924 272.2889 0002362  93.3927 266.7539 14.34211981293366
IRIDIUM 169             
1 43926U 19002E   24231.65589277  .00001057  00000+0  33916-3 0  9994
2 43926  86.4231 304.1578 0003597  61.8476 298.3085 14.38613095294251
IRIDIUM 172             
1 43927U 19002F   24231.63517742  .00000607  00000+0  20956-3 0  9991
2 43927  86.3924 272.5309 0002221  92.4379 267.7071 14.34211057293280
IRIDIUM 175             
1 43928U 19002G   24232.11847794  .00001219  00000+0  18933-3 0  9991
2 43928  86.1472 241.9489 0002444  86.7224 273.4272 14.72237916301098
